NORAD_CAT_ID,OBJECT_NAME,OBJECT_TYPE,EPOCH,MEAN_MOTION,ECCENTRICITY,INCLINATION,RA_OF_ASC_NODE,ARG_OF_PERICENTER,MEAN_ANOMALY,BSTAR,MEAN_MOTION_DOT,MEAN_MOTION_DDOT,TLE_LINE0,TLE_LINE1,TLE_LINE2,SEMIMAJOR_AXIS,PERIOD,APOGEE,PERIGEE,DECAYED
52533.0,STARLINK-3951,PAYLOAD,2022-10-09 09:45:48,15.08850586,0.0002171999999999,53.2155,328.4049,38.6902,321.4245,0.0012565999999999,0.00019773,0.0,0 STARLINK-3951,1 52533U 22051A   22282.40680894  .00019773  00000-0  12566-2 0  9992,2 52533  53.2155 328.4049 0002172  38.6902 321.4245 15.08850586 23148,6917.848000000001,95.437,541.216,538.21,0.0
52533.0,STARLINK-3951,PAYLOAD,2022-10-09 14:31:57,15.08861492,0.0002233,53.2154,327.5132,37.8146,322.3002,0.0015567,0.00024589,0.0,0 STARLINK-3951,1 52533U 22051A   22282.60552660  .00024589  00000-0  15567-2 0  9998,2 52533  53.2154 327.5132 0002233  37.8146 322.3002 15.08861492 23171,6917.815,95.436,541.224,538.135,0.0
52533.0,STARLINK-3951,PAYLOAD,2022-10-10 09:36:34,15.08821503,0.0002583,53.2153,323.9439,15.8448,344.2624,-0.0010992,-0.00017732,0.0,0 STARLINK-3951,1 52533U 22051A   22283.40039866 -.00017732  00000-0 -10992-2 0  9996,2 52533  53.2153 323.9439 0002583  15.8448 344.2624 15.08821503 23362,6917.937,95.439,541.589,538.015,0.0
52533.0,STARLINK-3951,PAYLOAD,2022-10-10 14:22:44,15.088050400000002,0.000241,53.2156,323.0522,32.4018,327.7122,-0.0013229,-0.00021261,0.0,0 STARLINK-3951,1 52533U 22051A   22283.59912520 -.00021261  00000-0 -13229-2 0  9991,2 52533  53.2156 323.0522 0002410  32.4018 327.7122 15.08805040 23329,6917.986999999999,95.44,541.519,538.185,0.0
52533.0,STARLINK-3951,PAYLOAD,2022-10-11 12:38:09,15.08846765,0.0002137,53.2168,318.8915,42.506,317.6097,0.001449,0.00022853,0.0,0 STARLINK-3951,1 52533U 22051A   22284.52649579  .00022853  00000-0  14490-2 0  9993,2 52533  53.2168 318.8915 0002137  42.5060 317.6097 15.08846765 23536,6917.86,95.437,541.203,538.246,0.0
52533.0,STARLINK-3951,PAYLOAD,2022-10-11 14:13:32,15.08838375,0.0002346,53.2156,318.5911,37.9874,322.1284,0.00086257,0.00013466,0.0,0 STARLINK-3951,1 52533U 22051A   22284.59273861  .00013466  00000-0  86257-3 0  9998,2 52533  53.2156 318.5911 0002346  37.9874 322.1284 15.08838375 23547,6917.885,95.438,541.373,538.127,0.0
52533.0,STARLINK-3951,PAYLOAD,2022-10-12 09:18:10,15.08829959,0.0002184,53.2157,315.0226,33.0889,327.0239,0.0002041999999999,2.962e-05,0.0,0 STARLINK-3951,1 52533U 22051A   22285.38762496  .00002962  00000-0  20420-3 0  9992,2 52533  53.2157 315.0226 0002184  33.0889 327.0239 15.08829959 23667,6917.911,95.438,541.2869999999998,538.265,0.0
52533.0,STARLINK-3951,PAYLOAD,2022-10-12 12:28:57,15.08831771,0.0002176,53.2158,314.4277,34.3017,325.8116,0.00033359,5.024e-05,0.0,0 STARLINK-3951,1 52533U 22051A   22285.52010601  .00005024  00000-0  33359-3 0  9999,2 52533  53.2158 314.4277 0002176  34.3017 325.8116 15.08831771 23615,6917.906,95.438,541.276,538.265,0.0
52533.0,STARLINK-3951,PAYLOAD,2022-10-13 10:44:20,15.08842949,0.0002246,53.2154,310.2643,31.722,328.3907,0.00026971,4.007e-05,0.0,0 STARLINK-3951,1 52533U 22051A   22286.44746258  .00004007  00000-0  26971-3 0  9997,2 52533  53.2154 310.2643 0002246  31.7220 328.3907 15.08842949 23757,6917.871,95.437,541.29,538.183,0.0
52533.0,STARLINK-3951,PAYLOAD,2022-10-13 13:55:06,15.08846858,0.0002268,53.2154,309.6696,31.9655,328.1474,0.00033424,5.036e-05,0.0,0 STARLINK-3951,1 52533U 22051A   22286.57994132  .00005036  00000-0  33424-3 0  9991,2 52533  53.2154 309.6696 0002268  31.9655 328.1474 15.08846858 23845,6917.859,95.437,541.293,538.155,0.0
52533.0,STARLINK-3951,PAYLOAD,2022-10-14 12:10:30,15.08840513,0.0002294,53.2153,305.5065,31.3552,328.7576,6.6552e-05,7.71e-06,0.0,0 STARLINK-3951,1 52533U 22051A   22287.50730012  .00000771  00000-0  66552-4 0  9990,2 52533  53.2153 305.5065 0002294  31.3552 328.7576 15.08840513 23917,6917.879,95.438,541.331,538.1569999999998,0.0
52533.0,STARLINK-3951,PAYLOAD,2022-10-14 13:45:53,15.08839952,0.0002367,53.2153,305.2093,30.5928,329.5202,6.0582e-05,6.76e-06,0.0,0 STARLINK-3951,1 52533U 22051A   22287.57354083  .00000676  00000-0  60582-4 0  9998,2 52533  53.2153 305.2093 0002367  30.5928 329.5202 15.08839952 23992,6917.880999999999,95.438,541.383,538.1080000000002,0.0
52533.0,STARLINK-3951,PAYLOAD,2022-10-14 18:32:03,15.08844615,0.0002318,53.2153,304.3173,31.4946,328.6184,0.00012785,1.747e-05,0.0,0 STARLINK-3951,1 52533U 22051A   22287.77225752  .00001747  00000-0  12785-3 0  9991,2 52533  53.2153 304.3173 0002318  31.4946 328.6184 15.08844615 23954,6917.866,95.437,541.335,538.128,0.0
52533.0,STARLINK-3951,PAYLOAD,2022-10-15 04:04:21,15.08850664,0.0002360999999999,53.215,302.5331,31.8409,328.2725,0.00014053,1.95e-05,0.0,0 STARLINK-3951,1 52533U 22051A   22288.16969247  .00001950  00000-0  14053-3 0  9995,2 52533  53.2150 302.5331 0002361  31.8409 328.2725 15.08850664 24086,6917.848000000001,95.437,541.346,538.0790000000002,0.0
52533.0,STARLINK-3951,PAYLOAD,2022-10-15 12:01:17,15.08848694,0.0002387,53.2153,301.046,33.6537,326.4606,0.00012771,1.745e-05,0.0,0 STARLINK-3951,1 52533U 22051A   22288.50089275  .00001745  00000-0  12771-3 0  9994,2 52533  53.2153 301.0460 0002387  33.6537 326.4606 15.08848694 24062,6917.854,95.437,541.37,538.068,0.0
52533.0,STARLINK-3951,PAYLOAD,2022-10-16 11:52:04,15.08835012,0.0002351,53.2151,296.5853,31.3313,328.7819,-7.951e-05,-1.553e-05,0.0,0 STARLINK-3951,1 52533U 22051A   22289.49449488 -.00001553  00000-0 -79510-4 0  9993,2 52533  53.2151 296.5853 0002351  31.3313 328.7819 15.08835012 24287,6917.896,95.438,541.387,538.134,0.0
52533.0,STARLINK-3951,PAYLOAD,2022-10-17 03:45:55,15.08848575,0.0002363,53.2153,293.6112,32.278,327.8356,0.00020839,3.031e-05,0.0,0 STARLINK-3951,1 52533U 22051A   22290.15689057  .00003031  00000-0  20839-3 0  9996,2 52533  53.2153 293.6112 0002363  32.2780 327.8356 15.08848575 24381,6917.854,95.437,541.354,538.0840000000002,0.0
52533.0,STARLINK-3951,PAYLOAD,2022-10-17 11:42:51,15.0884113,0.0002334,53.215,292.1248,32.1208,327.9926,0.00037465,5.68e-05,0.0,0 STARLINK-3951,1 52533U 22051A   22290.48809363  .00005680  00000-0  37465-3 0  9991,2 52533  53.2150 292.1248 0002334  32.1208 327.9926 15.08841130 24434,6917.877,95.437,541.357,538.127,0.0
52533.0,STARLINK-3951,PAYLOAD,2022-10-18 11:33:38,15.0883967,0.0002392,53.2149,287.6642,30.8407,329.2725,7.742e-05,9.44e-06,0.0,0 STARLINK-3951,1 52533U 22051A   22291.48169348  .00000944  00000-0  77420-4 0  9998,2 52533  53.2149 287.6642 0002392  30.8407 329.2725 15.08839670 24583,6917.880999999999,95.438,541.401,538.092,0.0
52533.0,STARLINK-3951,PAYLOAD,2022-10-18 16:19:47,15.08836476,0.0002379,53.215,286.7719,34.0212,326.0932,0.00013212,1.815e-05,0.0,0 STARLINK-3951,1 52533U 22051A   22291.68041592  .00001815  00000-0  13212-3 0  9996,2 52533  53.2150 286.7719 0002379  34.0212 326.0932 15.08836476 24547,6917.891,95.438,541.4019999999998,538.11,0.0
52533.0,STARLINK-3951,PAYLOAD,2022-10-19 11:24:25,15.08840943,0.0002360999999999,53.2158,283.2033,37.0028,323.1127,4.432100000000001e-05,4.17e-06,0.0,0 STARLINK-3951,1 52533U 22051A   22292.47529712  .00000417  00000-0  44321-4 0  9992,2 52533  53.2158 283.2033 0002361  37.0028 323.1127 15.08840943 24666,6917.878000000002,95.437,541.376,538.109,0.0
52533.0,STARLINK-3951,PAYLOAD,2022-10-20 09:39:49,15.0883578,0.0002418,53.216,279.0402,37.7713,322.3449,0.00010704,1.415e-05,0.0,0 STARLINK-3951,1 52533U 22051A   22293.40266062  .00001415  00000-0  10704-3 0  9998,2 52533  53.2160 279.0402 0002418  37.7713 322.3449 15.08835780 24800,6917.893,95.438,541.431,538.086,0.0
52533.0,STARLINK-3951,PAYLOAD,2022-10-20 16:01:22,15.08842546,0.0002411,53.2159,277.8509,37.7721,322.344,0.0001392,1.928e-05,0.0,0 STARLINK-3951,1 52533U 22051A   22293.66761585  .00001928  00000-0  13920-3 0  9998,2 52533  53.2159 277.8509 0002411  37.7721 322.3440 15.08842546 24847,6917.873000000001,95.437,541.406,538.07,0.0
52533.0,STARLINK-3951,PAYLOAD,2022-10-21 03:09:04,15.08834422,0.0002438,53.2159,275.7694,37.9922,322.1241,0.00013201,1.813e-05,0.0,0 STARLINK-3951,1 52533U 22051A   22294.13130266  .00001813  00000-0  13201-3 0  9992,2 52533  53.2159 275.7694 0002438  37.9922 322.1241 15.08834422 24989,6917.897,95.438,541.4490000000002,538.076,0.0
52533.0,STARLINK-3951,PAYLOAD,2022-10-21 07:55:13,15.08840376,0.0002455,53.216,274.8773,37.4594,322.6569,8.1545e-05,1.01e-05,0.0,0 STARLINK-3951,1 52533U 22051A   22294.33002012  .00001010  00000-0  81545-4 0  9997,2 52533  53.2160 274.8773 0002455  37.4594 322.6569 15.08840376 24947,6917.879,95.438,541.443,538.0459999999998,0.0
52533.0,STARLINK-3951,PAYLOAD,2022-10-21 15:52:08,15.08846993,0.0002449,53.2161,273.3904,38.0862,322.0303,0.00012733,1.739e-05,0.0,0 STARLINK-3951,1 52533U 22051A   22294.66121412  .00001739  00000-0  12733-3 0  9999,2 52533  53.2161 273.3904 0002449  38.0862 322.0303 15.08846993 25061,6917.859,95.437,541.418,538.03,0.0
52533.0,STARLINK-3951,PAYLOAD,2022-10-22 04:35:14,15.08840518,0.0002467,53.2165,271.0116,39.5494,320.5678,9.6101e-05,1.241e-05,0.0,0 STARLINK-3951,1 52533U 22051A   22295.19113910  .00001241  00000-0  96101-4 0  9992,2 52533  53.2165 271.0116 0002467  39.5494 320.5678 15.08840518 25146,6917.879,95.438,541.45,538.0369999999998,0.0
52533.0,STARLINK-3951,PAYLOAD,2022-10-22 07:46:00,15.08841985,0.0002463,53.2161,270.4163,38.7647,321.3521,0.0001028,1.348e-05,0.0,0 STARLINK-3951,1 52533U 22051A   22295.32361781  .00001348  00000-0  10280-3 0  9999,2 52533  53.2161 270.4163 0002463  38.7647 321.3521 15.08841985 25093,6917.874,95.437,541.443,538.035,0.0
52533.0,STARLINK-3951,PAYLOAD,2022-10-22 15:42:56,15.08848866,0.000258,53.2162,268.9301,36.2224,323.8943,-0.0001582,-2.806e-05,0.0,0 STARLINK-3951,1 52533U 22051A   22295.65481835 -.00002806  00000-0 -15820-3 0  9995,2 52533  53.2162 268.9301 0002580  36.2224 323.8943 15.08848866 25140,6917.853,95.437,541.503,537.933,0.0
